ONEWEB-0570             
1 55149U 23004K   24089.91667824  .00018004  00000+0  45554-1 0  9995
2 55149  87.9158 136.6059 0002698 107.8081 315.1818 13.18670753  5209
ONEWEB-0571             
1 55150U 23004L   24089.82121015  .00000042  00000+0  73225-4 0  9996
2 55150  87.9168 136.6295 0002130 129.8666 230.2654 13.18688905 63036
ONEWEB-0572             
1 55151U 23004M   24089.66072491  .00000076  00000+0  16352-3 0  9996
2 55151  87.9245 166.9360 0002199 109.1555 250.9815 13.17649433 60874
ONEWEB-0573             
1 55152U 23004N   24089.89076684 -.00001129  00000+0 -28956-2 0  9994
2 55152  87.9164 136.6405 0002499 122.7162 237.4211 13.18692210 63030
ONEWEB-0588             
1 55153U 23004P   24089.88445826  .00000005  00000+0 -19664-4 0  9991
2 55153  87.9169 136.6043 0002632 106.1893 253.9529 13.18684685 63032
ONEWEB-0598             
1 55154U 23004Q   24089.65056396 -.00000145  00000+0 -44561-3 0  9996
2 55154  87.9035 182.0771 0001894 130.4305 229.6988 13.11413948 59797
ONEWEB-0599             
1 55155U 23004R   24089.92490392 -.00000135  00000+0 -38159-3 0  9990
2 55155  87.9250 166.8623 0001860 106.7062 253.4274 13.17649410 60912
ONEWEB-0614             
1 55156U 23004S   24089.49309960  .00000157  00000+0  40858-3 0  9994
2 55156  87.9038 182.1110 0002352 100.9454 259.1938 13.11415645 59718
