<?xml version="1.0" encoding="UTF-8"?>
<ndm xmlns:xsi="http://www.w3.org/2001/XMLSchema-instance" xsi:noNamespaceSchemaLocation="https://sanaregistry.org/r/ndmxml_unqualified/ndmxml-2.0.0-master-2.0.xsd">
<omm id="CCSDS_OMM_VERS" version="2.0">
<header><CREATION_DATE/><ORIGINATOR/></header><body><segment><metadata><OBJECT_NAME>ONEWEB-0570</OBJECT_NAME><OBJECT_ID>2023-004K</OBJECT_ID><CENTER_NAME>EARTH</CENTER_NAME><REF_FRAME>TEME</REF_FRAME><TIME_SYSTEM>UTC</TIME_SYSTEM><MEAN_ELEMENT_THEORY>SGP4</MEAN_ELEMENT_THEORY></metadata><data><meanElements><EPOCH>2024-03-29T22:00:00.999936</EPOCH><MEAN_MOTION>13.18670753</MEAN_MOTION><ECCENTRICITY>.0002698</ECCENTRICITY><INCLINATION>87.9158</INCLINATION><RA_OF_ASC_NODE>136.6059</RA_OF_ASC_NODE><ARG_OF_PERICENTER>107.8081</ARG_OF_PERICENTER><MEAN_ANOMALY>315.1818</MEAN_ANOMALY></meanElements><tleParameters><EPHEMERIS_TYPE>0</EPHEMERIS_TYPE><CLASSIFICATION_TYPE>U</CLASSIFICATION_TYPE><NORAD_CAT_ID>55149</NORAD_CAT_ID><ELEMENT_SET_NO>999</ELEMENT_SET_NO><REV_AT_EPOCH>520</REV_AT_EPOCH><BSTAR>.45554E-1</BSTAR><MEAN_MOTION_DOT>.18004E-3</MEAN_MOTION_DOT><MEAN_MOTION_DDOT>0</MEAN_MOTION_DDOT></tleParameters></data></segment></body></omm>
<omm id="CCSDS_OMM_VERS" version="2.0">
<header><CREATION_DATE/><ORIGINATOR/></header><body><segment><metadata><OBJECT_NAME>ONEWEB-0571</OBJECT_NAME><OBJECT_ID>2023-004L</OBJECT_ID><CENTER_NAME>EARTH</CENTER_NAME><REF_FRAME>TEME</REF_FRAME><TIME_SYSTEM>UTC</TIME_SYSTEM><MEAN_ELEMENT_THEORY>SGP4</MEAN_ELEMENT_THEORY></metadata><data><meanElements><EPOCH>2024-03-29T19:42:32.556960</EPOCH><MEAN_MOTION>13.18688905</MEAN_MOTION><ECCENTRICITY>.000213</ECCENTRICITY><INCLINATION>87.9168</INCLINATION><RA_OF_ASC_NODE>136.6295</RA_OF_ASC_NODE><ARG_OF_PERICENTER>129.8666</ARG_OF_PERICENTER><MEAN_ANOMALY>230.2654</MEAN_ANOMALY></meanElements><tleParameters><EPHEMERIS_TYPE>0</EPHEMERIS_TYPE><CLASSIFICATION_TYPE>U</CLASSIFICATION_TYPE><NORAD_CAT_ID>55150</NORAD_CAT_ID><ELEMENT_SET_NO>999</ELEMENT_SET_NO><REV_AT_EPOCH>6303</REV_AT_EPOCH><BSTAR>.73225E-4</BSTAR><MEAN_MOTION_DOT>.42E-6</MEAN_MOTION_DOT><MEAN_MOTION_DDOT>0</MEAN_MOTION_DDOT></tleParameters></data></segment></body></omm>
<omm id="CCSDS_OMM_VERS" version="2.0">
<header><CREATION_DATE/><ORIGINATOR/></header><body><segment><metadata><OBJECT_NAME>ONEWEB-0572</OBJECT_NAME><OBJECT_ID>2023-004M</OBJECT_ID><CENTER_NAME>EARTH</CENTER_NAME><REF_FRAME>TEME</REF_FRAME><TIME_SYSTEM>UTC</TIME_SYSTEM><MEAN_ELEMENT_THEORY>SGP4</MEAN_ELEMENT_THEORY></metadata><data><meanElements><EPOCH>2024-03-29T15:51:26.632224</EPOCH><MEAN_MOTION>13.17649433</MEAN_MOTION><ECCENTRICITY>.0002199</ECCENTRICITY><INCLINATION>87.9245</INCLINATION><RA_OF_ASC_NODE>166.9360</RA_OF_ASC_NODE><ARG_OF_PERICENTER>109.1555</ARG_OF_PERICENTER><MEAN_ANOMALY>250.9815</MEAN_ANOMALY></meanElements><tleParameters><EPHEMERIS_TYPE>0</EPHEMERIS_TYPE><CLASSIFICATION_TYPE>U</CLASSIFICATION_TYPE><NORAD_CAT_ID>55151</NORAD_CAT_ID><ELEMENT_SET_NO>999</ELEMENT_SET_NO><REV_AT_EPOCH>6087</REV_AT_EPOCH><BSTAR>.16352E-3</BSTAR><MEAN_MOTION_DOT>.76E-6</MEAN_MOTION_DOT><MEAN_MOTION_DDOT>0</MEAN_MOTION_DDOT></tleParameters></data></segment></body></omm>
<omm id="CCSDS_OMM_VERS" version="2.0">
<header><CREATION_DATE/><ORIGINATOR/></header><body><segment><metadata><OBJECT_NAME>ONEWEB-0573</OBJECT_NAME><OBJECT_ID>2023-004N</OBJECT_ID><CENTER_NAME>EARTH</CENTER_NAME><REF_FRAME>TEME</REF_FRAME><TIME_SYSTEM>UTC</TIME_SYSTEM><MEAN_ELEMENT_THEORY>SGP4</MEAN_ELEMENT_THEORY></metadata><data><meanElements><EPOCH>2024-03-29T21:22:42.254976</EPOCH><MEAN_MOTION>13.18692210</MEAN_MOTION><ECCENTRICITY>.0002499</ECCENTRICITY><INCLINATION>87.9164</INCLINATION><RA_OF_ASC_NODE>136.6405</RA_OF_ASC_NODE><ARG_OF_PERICENTER>122.7162</ARG_OF_PERICENTER><MEAN_ANOMALY>237.4211</MEAN_ANOMALY></meanElements><tleParameters><EPHEMERIS_TYPE>0</EPHEMERIS_TYPE><CLASSIFICATION_TYPE>U</CLASSIFICATION_TYPE><NORAD_CAT_ID>55152</NORAD_CAT_ID><ELEMENT_SET_NO>999</ELEMENT_SET_NO><REV_AT_EPOCH>6303</REV_AT_EPOCH><BSTAR>-.28956E-2</BSTAR><MEAN_MOTION_DOT>-.1129E-4</MEAN_MOTION_DOT><MEAN_MOTION_DDOT>0</MEAN_MOTION_DDOT></tleParameters></data></segment></body></omm>
<omm id="CCSDS_OMM_VERS" version="2.0">
<header><CREATION_DATE/><ORIGINATOR/></header><body><segment><metadata><OBJECT_NAME>ONEWEB-0588</OBJECT_NAME><OBJECT_ID>2023-004P</OBJECT_ID><CENTER_NAME>EARTH</CENTER_NAME><REF_FRAME>TEME</REF_FRAME><TIME_SYSTEM>UTC</TIME_SYSTEM><MEAN_ELEMENT_THEORY>SGP4</MEAN_ELEMENT_THEORY></metadata><data><meanElements><EPOCH>2024-03-29T21:13:37.193664</EPOCH><MEAN_MOTION>13.18684685</MEAN_MOTION><ECCENTRICITY>.0002632</ECCENTRICITY><INCLINATION>87.9169</INCLINATION><RA_OF_ASC_NODE>136.6043</RA_OF_ASC_NODE><ARG_OF_PERICENTER>106.1893</ARG_OF_PERICENTER><MEAN_ANOMALY>253.9529</MEAN_ANOMALY></meanElements><tleParameters><EPHEMERIS_TYPE>0</EPHEMERIS_TYPE><CLASSIFICATION_TYPE>U</CLASSIFICATION_TYPE><NORAD_CAT_ID>55153</NORAD_CAT_ID><ELEMENT_SET_NO>999</ELEMENT_SET_NO><REV_AT_EPOCH>6303</REV_AT_EPOCH><BSTAR>-.19664E-4</BSTAR><MEAN_MOTION_DOT>.5E-7</MEAN_MOTION_DOT><MEAN_MOTION_DDOT>0</MEAN_MOTION_DDOT></tleParameters></data></segment></body></omm>
<omm id="CCSDS_OMM_VERS" version="2.0">
<header><CREATION_DATE/><ORIGINATOR/></header><body><segment><metadata><OBJECT_NAME>ONEWEB-0598</OBJECT_NAME><OBJECT_ID>2023-004Q</OBJECT_ID><CENTER_NAME>EARTH</CENTER_NAME><REF_FRAME>TEME</REF_FRAME><TIME_SYSTEM>UTC</TIME_SYSTEM><MEAN_ELEMENT_THEORY>SGP4</MEAN_ELEMENT_THEORY></metadata><data><meanElements><EPOCH>2024-03-29T15:36:48.726144</EPOCH><MEAN_MOTION>13.11413948</MEAN_MOTION><ECCENTRICITY>.0001894</ECCENTRICITY><INCLINATION>87.9035</INCLINATION><RA_OF_ASC_NODE>182.0771</RA_OF_ASC_NODE><ARG_OF_PERICENTER>130.4305</ARG_OF_PERICENTER><MEAN_ANOMALY>229.6988</MEAN_ANOMALY></meanElements><tleParameters><EPHEMERIS_TYPE>0</EPHEMERIS_TYPE><CLASSIFICATION_TYPE>U</CLASSIFICATION_TYPE><NORAD_CAT_ID>55154</NORAD_CAT_ID><ELEMENT_SET_NO>999</ELEMENT_SET_NO><REV_AT_EPOCH>5979</REV_AT_EPOCH><BSTAR>-.44561E-3</BSTAR><MEAN_MOTION_DOT>-.145E-5</MEAN_MOTION_DOT><MEAN_MOTION_DDOT>0</MEAN_MOTION_DDOT></tleParameters></data></segment></body></omm>
<omm id="CCSDS_OMM_VERS" version="2.0">
<header><CREATION_DATE/><ORIGINATOR/></header><body><segment><metadata><OBJECT_NAME>ONEWEB-0599</OBJECT_NAME><OBJECT_ID>2023-004R</OBJECT_ID><CENTER_NAME>EARTH</CENTER_NAME><REF_FRAME>TEME</REF_FRAME><TIME_SYSTEM>UTC</TIME_SYSTEM><MEAN_ELEMENT_THEORY>SGP4</MEAN_ELEMENT_THEORY></metadata><data><meanElements><EPOCH>2024-03-29T22:11:51.698688</EPOCH><MEAN_MOTION>13.17649410</MEAN_MOTION><ECCENTRICITY>.000186</ECCENTRICITY><INCLINATION>87.9250</INCLINATION><RA_OF_ASC_NODE>166.8623</RA_OF_ASC_NODE><ARG_OF_PERICENTER>106.7062</ARG_OF_PERICENTER><MEAN_ANOMALY>253.4274</MEAN_ANOMALY></meanElements><tleParameters><EPHEMERIS_TYPE>0</EPHEMERIS_TYPE><CLASSIFICATION_TYPE>U</CLASSIFICATION_TYPE><NORAD_CAT_ID>55155</NORAD_CAT_ID><ELEMENT_SET_NO>999</ELEMENT_SET_NO><REV_AT_EPOCH>6091</REV_AT_EPOCH><BSTAR>-.38159E-3</BSTAR><MEAN_MOTION_DOT>-.135E-5</MEAN_MOTION_DOT><MEAN_MOTION_DDOT>0</MEAN_MOTION_DDOT></tleParameters></data></segment></body></omm>
<omm id="CCSDS_OMM_VERS" version="2.0">
<header><CREATION_DATE/><ORIGINATOR/></header><body><segment><metadata><OBJECT_NAME>ONEWEB-0614</OBJECT_NAME><OBJECT_ID>2023-004S</OBJECT_ID><CENTER_NAME>EARTH</CENTER_NAME><REF_FRAME>TEME</REF_FRAME><TIME_SYSTEM>UTC</TIME_SYSTEM><MEAN_ELEMENT_THEORY>SGP4</MEAN_ELEMENT_THEORY></metadata><data><meanElements><EPOCH>2024-03-29T11:50:03.805440</EPOCH><MEAN_MOTION>13.11415645</MEAN_MOTION><ECCENTRICITY>.0002352</ECCENTRICITY><INCLINATION>87.9038</INCLINATION><RA_OF_ASC_NODE>182.1110</RA_OF_ASC_NODE><ARG_OF_PERICENTER>100.9454</ARG_OF_PERICENTER><MEAN_ANOMALY>259.1938</MEAN_ANOMALY></meanElements><tleParameters><EPHEMERIS_TYPE>0</EPHEMERIS_TYPE><CLASSIFICATION_TYPE>U</CLASSIFICATION_TYPE><NORAD_CAT_ID>55156</NORAD_CAT_ID><ELEMENT_SET_NO>999</ELEMENT_SET_NO><REV_AT_EPOCH>5971</REV_AT_EPOCH><BSTAR>.40858E-3</BSTAR><MEAN_MOTION_DOT>.157E-5</MEAN_MOTION_DOT><MEAN_MOTION_DDOT>0</MEAN_MOTION_DDOT></tleParameters></data></segment></body></omm>

</ndm>
